2023-104A               
1 57424U 23104A   26065.78279804  .00015492  00000+0  48200-3 0  9993
2 57424  97.2792 135.5625 0009333 122.1915 238.0234 15.33350758146346
STARLINK-30291          
1 57856U 23141S   26068.85312469  .00000165  00000+0  17704-4 0  9996
2 57856  53.1592 283.3202 0001199  74.2697 285.8436 15.30188197140355
